NORAD_CAT_ID,OBJECT_NAME,OBJECT_TYPE,EPOCH,MEAN_MOTION,ECCENTRICITY,INCLINATION,RA_OF_ASC_NODE,ARG_OF_PERICENTER,MEAN_ANOMALY,BSTAR,MEAN_MOTION_DOT,MEAN_MOTION_DDOT,TLE_LINE0,TLE_LINE1,TLE_LINE2,SEMIMAJOR_AXIS,PERIOD,APOGEE,PERIGEE,DECAYED
55776.0,STARLINK-5810,PAYLOAD,2023-08-28 20:04:34,14.98334144,0.0002896,70.0002,33.6198,270.1617,89.921,3.4067e-05,3.14e-06,0.0,0 STARLINK-5810,1 55776U 23028AM  23240.83650741  .00000314  00000-0  34067-4 0  9992,2 55776  70.0002  33.6198 0002896 270.1617  89.9210 14.98334144 28156,6950.18,96.107,574.058,570.032,0.0
55776.0,STARLINK-5810,PAYLOAD,2023-08-29 10:29:47,14.98327233,0.0002887,70.0003,32.105,270.2036,89.8792,-4.3403e-05,-6.11e-06,0.0,0 STARLINK-5810,1 55776U 23028AM  23241.43735370 -.00000611  00000-0 -43403-4 0  9997,2 55776  70.0003  32.1050 0002887 270.2036  89.8792 14.98327233 28249,6950.201,96.107,574.073,570.06,0.0
55776.0,STARLINK-5810,PAYLOAD,2023-08-29 20:06:35,14.98330917,0.0002893,70.0004,31.0951,270.282,89.8007,-1.5717e-06,-1.12e-06,0.0,0 STARLINK-5810,1 55776U 23028AM  23241.83791050 -.00000112  00000-0 -15717-5 0  9992,2 55776  70.0004  31.0951 0002893 270.2820  89.8007 14.98330917 28305,6950.19,96.107,574.066,570.044,0.0
55776.0,STARLINK-5810,PAYLOAD,2023-08-30 16:56:20,14.98331454,0.0002904,70.0007,28.907,270.3398,89.7428,-6.8632e-06,-1.75e-06,0.0,0 STARLINK-5810,1 55776U 23028AM  23242.70578972 -.00000175  00000-0 -68632-5 0  9998,2 55776  70.0007  28.9070 0002904 270.3398  89.7428 14.98331454 28436,6950.188,96.107,574.072,570.035,0.0
55776.0,STARLINK-5810,PAYLOAD,2023-08-31 02:33:08,14.98332122,0.0002911,70.0007,27.8972,270.5529,89.5296,-2.5614e-05,-3.99e-06,0.0,0 STARLINK-5810,1 55776U 23028AM  23243.10634903 -.00000399  00000-0 -25614-4 0  9990,2 55776  70.0007  27.8972 0002911 270.5529  89.5296 14.98332122 28491,6950.186,96.107,574.075,570.028,0.0
55776.0,STARLINK-5810,PAYLOAD,2023-09-01 15:24:13,14.98337935,0.0003159,70.0005,24.0259,269.8602,90.2195,3.9841e-05,3.82e-06,0.0,0 STARLINK-5810,1 55776U 23028AM  23244.64181802  .00000382  00000-0  39841-4 0  9992,2 55776  70.0005  24.0259 0003159 269.8602  90.2195 14.98337935 28724,6950.168,96.106,574.229,569.838,0.0
55776.0,STARLINK-5810,PAYLOAD,2023-09-02 02:37:10,14.98322845,0.0002949,70.0009,22.8475,270.3555,89.7266,-0.00010401,-1.334e-05,0.0,0 STARLINK-5810,1 55776U 23028AM  23245.10915086 -.00001334  00000-0 -10401-3 0  9993,2 55776  70.0009  22.8475 0002949 270.3555  89.7266 14.98322845 28797,6950.215,96.107,574.13,570.03,0.0
55776.0,STARLINK-5810,PAYLOAD,2023-09-02 12:13:59,14.98325822,0.0003146,70.0015,21.8377,269.4422,90.6376,-0.00017124,-2.135e-05,0.0,0 STARLINK-5810,1 55776U 23028AM  23245.50971108 -.00002135  00000-0 -17124-3 0  9993,2 55776  70.0015  21.8377 0003146 269.4422  90.6376 14.98325822 28854,6950.206,96.107,574.257,569.884,0.0
55776.0,STARLINK-5810,PAYLOAD,2023-09-02 18:38:31,14.98326023,0.0003378,70.0016,21.1653,271.2095,88.8677,-5.8254e-05,-7.88e-06,0.0,0 STARLINK-5810,1 55776U 23028AM  23245.77674770 -.00000788  00000-0 -58254-4 0  9999,2 55776  70.0016  21.1653 0003378 271.2095  88.8677 14.98326023 28890,6950.205,96.107,574.418,569.722,0.0
55776.0,STARLINK-5810,PAYLOAD,2023-09-03 09:03:43,14.98337804,0.0003219,70.0012,19.649,267.6162,92.4628,-0.00019844,-2.46e-05,0.0,0 STARLINK-5810,1 55776U 23028AM  23246.37758748 -.00002460  00000-0 -19844-3 0  9994,2 55776  70.0012  19.6490 0003219 267.6162  92.4628 14.98337804 28981,6950.169,96.106,574.271,569.796,0.0
55776.0,STARLINK-5810,PAYLOAD,2023-09-03 18:40:31,14.98327624,0.0003151,70.001,18.6393,270.1389,89.9409,9.6936e-05,1.064e-05,0.0,0 STARLINK-5810,1 55776U 23028AM  23246.77814355  .00001064  00000-0  96936-4 0  9990,2 55776  70.0010  18.6393 0003151 270.1389  89.9409 14.98327624 29040,6950.2,96.107,574.255,569.875,0.0
55776.0,STARLINK-5810,PAYLOAD,2023-09-04 09:05:44,14.98321631,0.0003136,70.0009,17.1242,269.6368,90.4432,5.9101e-05,6.12e-06,0.0,0 STARLINK-5810,1 55776U 23028AM  23247.37899019  .00000612  00000-0  59101-4 0  9998,2 55776  70.0009  17.1242 0003136 269.6368  90.4432 14.98321631 29133,6950.219,96.108,574.263,569.904,0.0
55776.0,STARLINK-5810,PAYLOAD,2023-09-04 18:42:33,14.98326171,0.0003324,70.0006,16.1148,270.7918,89.286,4.6038e-05,4.56e-06,0.0,0 STARLINK-5810,1 55776U 23028AM  23247.77954907  .00000456  00000-0  46038-4 0  9991,2 55776  70.0006  16.1148 0003324 270.7918  89.2860 14.98326171 29198,6950.205,96.107,574.38,569.759,0.0
55776.0,STARLINK-5810,PAYLOAD,2023-09-06 01:09:05,14.98334278,0.0003321,70.0016,12.9162,273.1045,86.9734,1.1633e-05,4.6e-07,0.0,0 STARLINK-5810,1 55776U 23028AM  23249.04798402  .00000046  00000-0  11633-4 0  9997,2 55776  70.0016  12.9162 0003321 273.1045  86.9734 14.98334278 29386,6950.18,96.107,574.353,569.737,0.0
55776.0,STARLINK-5810,PAYLOAD,2023-09-06 12:22:02,14.98325773,0.0003115,70.0017,11.7386,272.0356,88.0446,1.0878e-05,3.7e-07,0.0,0 STARLINK-5810,1 55776U 23028AM  23249.51530989  .00000037  00000-0  10878-4 0  9993,2 55776  70.0017  11.7386 0003115 272.0356  88.0446 14.98325773 29457,6950.206,96.107,574.236,569.906,0.0
55776.0,STARLINK-5810,PAYLOAD,2023-09-06 18:46:34,14.98331468,0.0002969,70.0019,11.0646,272.568,87.514,8.1253e-05,8.77e-06,0.0,0 STARLINK-5810,1 55776U 23028AM  23249.78234505  .00000877  00000-0  81253-4 0  9994,2 55776  70.0019  11.0646 0002969 272.5680  87.5140 14.98331468 29499,6950.188,96.107,574.117,569.99,0.0
55776.0,STARLINK-5810,PAYLOAD,2023-09-07 01:11:08,14.98264138,0.0002769,70.001,10.3909,265.8235,94.2608,0.0011957,0.00014178,0.0,0 STARLINK-5810,1 55776U 23028AM  23250.04940442  .00014178  00000-0  11957-2 0  9990,2 55776  70.0010  10.3909 0002769 265.8235  94.2608 14.98264138 29531,6950.397,96.111,574.186,570.337,0.0
55776.0,STARLINK-5810,PAYLOAD,2023-09-07 12:24:03,14.98330994,0.0003373,70.0007,9.2137,273.7097,86.3676,-7.4634e-05,-9.83e-06,0.0,0 STARLINK-5810,1 55776U 23028AM  23250.51670824 -.00000983  00000-0 -74634-4 0  9990,2 55776  70.0007   9.2137 0003373 273.7097  86.3676 14.98330994 29602,6950.19,96.107,574.399,569.711,0.0
55776.0,STARLINK-5810,PAYLOAD,2023-09-08 14:02:12,14.98329478,0.0003239,70.0017,6.5201,269.6848,90.3939,-6.557e-05,-8.75e-06,0.0,0 STARLINK-5810,1 55776U 23028AM  23251.58486773 -.00000875  00000-0 -65570-4 0  9995,2 55776  70.0017   6.5201 0003239 269.6848  90.3939 14.98329478 29763,6950.195,96.107,574.311,569.808,0.0
55776.0,STARLINK-5810,PAYLOAD,2023-09-08 17:14:28,14.9833568,0.0003265,70.0018,6.1837,269.8933,90.1852,2.7741e-06,-6e-07,0.0,0 STARLINK-5810,1 55776U 23028AM  23251.71838160 -.00000060  00000-0  27741-5 0  9995,2 55776  70.0018   6.1837 0003265 269.8933  90.1852 14.98335680 29787,6950.175,96.107,574.31,569.771,0.0
55776.0,STARLINK-5810,PAYLOAD,2023-09-09 10:51:57,14.98326471,0.0003273,70.0018,4.3325,269.4735,90.6049,1.1226e-05,4.1e-07,0.0,0 STARLINK-5810,1 55776U 23028AM  23252.45274625  .00000041  00000-0  11226-4 0  9995,2 55776  70.0018   4.3325 0003273 269.4735  90.6049 14.98326471 29897,6950.204,96.107,574.344,569.794,0.0
55776.0,STARLINK-5810,PAYLOAD,2023-09-09 14:04:12,14.98336105,0.0003269,70.0017,3.9953,269.5775,90.501,5.7054e-05,5.88e-06,0.0,0 STARLINK-5810,1 55776U 23028AM  23252.58625947  .00000588  00000-0  57054-4 0  9991,2 55776  70.0017   3.9953 0003269 269.5775  90.5010 14.98336105 29913,6950.174,96.107,574.311,569.767,0.0
55776.0,STARLINK-5810,PAYLOAD,2023-09-09 17:16:28,14.98336013,0.0003294,70.0016,3.659,269.8087,90.2695,5.2982e-05,5.39e-06,0.0,0 STARLINK-5810,1 55776U 23028AM  23252.71977921  .00000539  00000-0  52982-4 0  9999,2 55776  70.0016   3.6590 0003294 269.8087  90.2695 14.98336013 29939,6950.174,96.107,574.329,569.75,0.0
55776.0,STARLINK-5810,PAYLOAD,2023-09-10 14:06:13,14.98333442,0.0003152,70.0021,1.4707,275.3888,84.6911,8.5375e-05,9.26e-06,0.0,0 STARLINK-5810,1 55776U 23028AM  23253.58765717  .00000926  00000-0  85375-4 0  9995,2 55776  70.0021   1.4707 0003152 275.3888  84.6911 14.98333442 30062,6950.182,96.107,574.238,569.857,0.0
55776.0,STARLINK-5810,PAYLOAD,2023-09-10 17:18:29,14.98340035,0.0003309,70.0018,1.1351,274.9463,85.1318,0.00010384,1.147e-05,0.0,0 STARLINK-5810,1 55776U 23028AM  23253.72117119  .00001147  00000-0  10384-3 0  9991,2 55776  70.0018   1.1351 0003309 274.9463  85.1318 14.98340035 30083,6950.162,96.106,574.327,569.727,0.0
55776.0,STARLINK-5810,PAYLOAD,2023-09-11 10:55:59,14.98321325,0.0002722,70.0017,359.2824,258.5267,101.5586,-4.4852e-05,-6.28e-06,0.0,0 STARLINK-5810,1 55776U 23028AM  23254.45554632 -.00000628  00000-0 -44852-4 0  9990,2 55776  70.0017 359.2824 0002722 258.5267 101.5586 14.98321325 30195,6950.22,96.108,573.977,570.193,0.0
55776.0,STARLINK-5810,PAYLOAD,2023-09-11 14:08:13,14.9836051,0.000259,70.0023,358.9452,267.4264,92.6599,-0.00033286,-4.065e-05,0.0,0 STARLINK-5810,1 55776U 23028AM  23254.58905035 -.00004065  00000-0 -33286-3 0  9998,2 55776  70.0023 358.9452 0002590 267.4264  92.6599 14.98360510 30210,6950.099,96.105,573.764,570.163,0.0
55776.0,STARLINK-5810,PAYLOAD,2023-09-11 17:20:30,14.98355559,0.0002865,70.0018,358.6092,265.8274,94.2558,-0.00047747,-5.789e-05,0.0,0 STARLINK-5810,1 55776U 23028AM  23254.72257494 -.00005789  00000-0 -47747-3 0  9994,2 55776  70.0018 358.6092 0002865 265.8274  94.2558 14.98355559 30231,6950.114,96.105,573.97,569.988,0.0
55776.0,STARLINK-5810,PAYLOAD,2023-09-11 23:45:03,14.98331133,0.0003361,70.0019,357.9361,270.329,89.7484,-5.471e-05,-7.46e-06,0.0,0 STARLINK-5810,1 55776U 23028AM  23254.98962051 -.00000746  00000-0 -54710-4 0  9991,2 55776  70.0019 357.9361 0003361 270.3290  89.7484 14.98331133 30277,6950.189,96.107,574.39,569.718,0.0
55776.0,STARLINK-5810,PAYLOAD,2023-09-12 12:34:07,14.98332525,0.0003139,70.0021,356.5902,274.0728,86.0073,-3.0325e-05,-4.55e-06,0.0,0 STARLINK-5810,1 55776U 23028AM  23255.52369951 -.00000455  00000-0 -30325-4 0  9995,2 55776  70.0021 356.5902 0003139 274.0728  86.0073 14.98332525 30355,6950.185,96.107,574.232,569.868,0.0
